[
  {
    "COMMENT": "GENERATED VIA SPACETRACK.ORG API",
    "ORIGINATOR": "18 SPCS",
    "NORAD_CAT_ID": "55970",
    "OBJECT_NAME": "SES 18",
    "OBJECT_TYPE": "PAYLOAD",
    "CLASSIFICATION_TYPE": "U",
    "INTLDES": "23039A",
    "EPOCH": "2023-06-12 21:31:43",
    "EPOCH_MICROSECONDS": "576032",
    "MEAN_MOTION": "1.00271486",
    "ECCENTRICITY": "0.0000201",
    "INCLINATION": "0.0331",
    "RA_OF_ASC_NODE": "268.1337",
    "ARG_OF_PERICENTER": "60.4485",
    "MEAN_ANOMALY": "152.1952",
    "EPHEMERIS_TYPE": "0",
    "ELEMENT_SET_NO": "999",
    "REV_AT_EPOCH": "107",
    "BSTAR": "0",
    "MEAN_MOTION_DOT": "-0.00000101",
    "MEAN_MOTION_DDOT": "0",
    "FILE": "3931605",
    "TLE_LINE0": "0 SES 18",
    "TLE_LINE1": "1 55970U 23039A   23163.89703213 -.00000101  00000-0  00000-0 0  9994",
    "TLE_LINE2": "2 55970   0.0331 268.1337 0000201  60.4485 152.1952  1.00271486  1077",
    "OBJECT_ID": "2023-039A",
    "OBJECT_NUMBER": "55970",
    "SEMIMAJOR_AXIS": "42164.816",
    "PERIOD": "1436.101",
    "APOGEE": "35787.528",
    "PERIGEE": "35785.833",
    "DECAYED": "0"
  },
  {
    "COMMENT": "GENERATED VIA SPACETRACK.ORG API",
    "ORIGINATOR": "18 SPCS",
    "NORAD_CAT_ID": "25544",
    "OBJECT_NAME": "ISS (ZARYA)",
    "OBJECT_TYPE": "PAYLOAD",
    "CLASSIFICATION_TYPE": "U",
    "INTLDES": "98067A",
    "EPOCH": "2023-06-13 00:26:04",
    "EPOCH_MICROSECONDS": "749792",
    "MEAN_MOTION": "15.50711488",
    "ECCENTRICITY": "0.0005364",
    "INCLINATION": "51.6423",
    "RA_OF_ASC_NODE": "349.1942",
    "ARG_OF_PERICENTER": "76.5424",
    "MEAN_ANOMALY": "61.7713",
    "EPHEMERIS_TYPE": "0",
    "ELEMENT_SET_NO": "999",
    "REV_AT_EPOCH": "40114",
    "BSTAR": "0.00021251",
    "MEAN_MOTION_DOT": "0.00012",
    "MEAN_MOTION_DDOT": "0",
    "FILE": "3931602",
    "TLE_LINE0": "0 ISS (ZARYA)",
    "TLE_LINE1": "1 25544U 98067A   23164.01811053  .00012000  00000-0  21251-3 0  9992",
    "TLE_LINE2": "2 25544  51.6423 349.1942 0005364  76.5424  61.7713 15.50711488401146",
    "OBJECT_ID": "1998-067A",
    "OBJECT_NUMBER": "25544",
    "SEMIMAJOR_AXIS": "6792.785",
    "PERIOD": "92.861",
    "APOGEE": "418.293",
    "PERIGEE": "411.006",
    "DECAYED": "0"
  },
  {
    "COMMENT": "GENERATED VIA SPACETRACK.ORG API",
    "ORIGINATOR": "18 SPCS",
    "NORAD_CAT_ID": "41335",
    "OBJECT_NAME": "SENTINEL 3A",
    "OBJECT_TYPE": "PAYLOAD",
    "CLASSIFICATION_TYPE": "U",
    "INTLDES": "16011A",
    "EPOCH": "2023-06-13 03:49:18",
    "EPOCH_MICROSECONDS": "321312",
    "MEAN_MOTION": "14.26744229",
    "ECCENTRICITY": "0.0001327",
    "INCLINATION": "98.6214",
    "RA_OF_ASC_NODE": "231.2694",
    "ARG_OF_PERICENTER": "94.849",
    "MEAN_ANOMALY": "265.2842",
    "EPHEMERIS_TYPE": "0",
    "ELEMENT_SET_NO": "999",
    "REV_AT_EPOCH": "38120",
    "BSTAR": "0.000078147",
    "MEAN_MOTION_DOT": "0.00000146",
    "MEAN_MOTION_DDOT": "0",
    "FILE": "3931666",
    "TLE_LINE0": "0 SENTINEL 3A",
    "TLE_LINE1": "1 41335U 16011A   23164.15923983  .00000146  00000-0  78147-4 0  9993",
    "TLE_LINE2": "2 41335  98.6214 231.2694 0001327  94.8490 265.2842 14.26744229381206",
    "OBJECT_ID": "2016-011A",
    "OBJECT_NUMBER": "41335",
    "SEMIMAJOR_AXIS": "7180.771",
    "PERIOD": "100.929",
    "APOGEE": "803.589",
    "PERIGEE": "801.683",
    "DECAYED": "0"
  },
  {
    "COMMENT": "GENERATED VIA SPACETRACK.ORG API",
    "ORIGINATOR": "18 SPCS",
    "NORAD_CAT_ID": "55970",
    "OBJECT_NAME": "SES 18",
    "OBJECT_TYPE": "PAYLOAD",
    "CLASSIFICATION_TYPE": "U",
    "INTLDES": "23039A",
    "EPOCH": "2023-06-13 10:04:08",
    "EPOCH_MICROSECONDS": "859072",
    "MEAN_MOTION": "1.00272087",
    "ECCENTRICITY": "0.0000187",
    "INCLINATION": "0.032",
    "RA_OF_ASC_NODE": "268.453",
    "ARG_OF_PERICENTER": "43.9491",
    "MEAN_ANOMALY": "356.9969",
    "EPHEMERIS_TYPE": "0",
    "ELEMENT_SET_NO": "999",
    "REV_AT_EPOCH": "107",
    "BSTAR": "0",
    "MEAN_MOTION_DOT": "-0.000001",
    "MEAN_MOTION_DDOT": "0",
    "FILE": "3932134",
    "TLE_LINE0": "0 SES 18",
    "TLE_LINE1": "1 55970U 23039A   23164.41954698 -.00000100  00000-0  00000-0 0  9997",
    "TLE_LINE2": "2 55970   0.0320 268.4530 0000187  43.9491 356.9969  1.00272087  1079",
    "OBJECT_ID": "2023-039A",
    "OBJECT_NUMBER": "55970",
    "SEMIMAJOR_AXIS": "42164.647",
    "PERIOD": "1436.093",
    "APOGEE": "35787.301",
    "PERIGEE": "35785.724",
    "DECAYED": "0"
  },
  {
    "COMMENT": "GENERATED VIA SPACETRACK.ORG API",
    "ORIGINATOR": "18 SPCS",
    "NORAD_CAT_ID": "25544",
    "OBJECT_NAME": "ISS (ZARYA)",
    "OBJECT_TYPE": "PAYLOAD",
    "CLASSIFICATION_TYPE": "U",
    "INTLDES": "98067A",
    "EPOCH": "2023-06-13 11:02:13",
    "EPOCH_MICROSECONDS": "633728",
    "MEAN_MOTION": "15.50724144",
    "ECCENTRICITY": "0.0005355",
    "INCLINATION": "51.6423",
    "RA_OF_ASC_NODE": "347.002",
    "ARG_OF_PERICENTER": "78.1758",
    "MEAN_ANOMALY": "7.9884",
    "EPHEMERIS_TYPE": "0",
    "ELEMENT_SET_NO": "999",
    "REV_AT_EPOCH": "40121",
    "BSTAR": "0.00021957",
    "MEAN_MOTION_DOT": "0.00012421",
    "MEAN_MOTION_DDOT": "0",
    "FILE": "3931896",
    "TLE_LINE0": "0 ISS (ZARYA)",
    "TLE_LINE1": "1 25544U 98067A   23164.45988002  .00012421  00000-0  21957-3 0  9999",
    "TLE_LINE2": "2 25544  51.6423 347.0020 0005355  78.1758   7.9884 15.50724144401210",
    "OBJECT_ID": "1998-067A",
    "OBJECT_NUMBER": "25544",
    "SEMIMAJOR_AXIS": "6792.748",
    "PERIOD": "92.860",
    "APOGEE": "418.250",
    "PERIGEE": "410.975",
    "DECAYED": "0"
  },
  {
    "COMMENT": "GENERATED VIA SPACETRACK.ORG API",
    "ORIGINATOR": "18 SPCS",
    "NORAD_CAT_ID": "25544",
    "OBJECT_NAME": "ISS (ZARYA)",
    "OBJECT_TYPE": "PAYLOAD",
    "CLASSIFICATION_TYPE": "U",
    "INTLDES": "98067A",
    "EPOCH": "2023-06-13 12:12:51",
    "EPOCH_MICROSECONDS": "393024",
    "MEAN_MOTION": "15.50724885",
    "ECCENTRICITY": "0.0005139",
    "INCLINATION": "51.6401",
    "RA_OF_ASC_NODE": "346.7634",
    "ARG_OF_PERICENTER": "77.4807",
    "MEAN_ANOMALY": "282.6757",
    "EPHEMERIS_TYPE": "0",
    "ELEMENT_SET_NO": "999",
    "REV_AT_EPOCH": "40122",
    "BSTAR": "0.00022628",
    "MEAN_MOTION_DOT": "0.00012815",
    "MEAN_MOTION_DDOT": "0",
    "FILE": "3932134",
    "TLE_LINE0": "0 ISS (ZARYA)",
    "TLE_LINE1": "1 25544U 98067A   23164.50892816  .00012815  00000-0  22628-3 0  9995",
    "TLE_LINE2": "2 25544  51.6401 346.7634 0005139  77.4807 282.6757 15.50724885401224",
    "OBJECT_ID": "1998-067A",
    "OBJECT_NUMBER": "25544",
    "SEMIMAJOR_AXIS": "6792.745",
    "PERIOD": "92.860",
    "APOGEE": "418.101",
    "PERIGEE": "411.120",
    "DECAYED": "0"
  },
  {
    "COMMENT": "GENERATED VIA SPACETRACK.ORG API",
    "ORIGINATOR": "18 SPCS",
    "NORAD_CAT_ID": "41335",
    "OBJECT_NAME": "SENTINEL 3A",
    "OBJECT_TYPE": "PAYLOAD",
    "CLASSIFICATION_TYPE": "U",
    "INTLDES": "16011A",
    "EPOCH": "2023-06-13 12:14:14",
    "EPOCH_MICROSECONDS": "268768",
    "MEAN_MOTION": "14.2674437",
    "ECCENTRICITY": "0.0001329",
    "INCLINATION": "98.6214",
    "RA_OF_ASC_NODE": "231.6149",
    "ARG_OF_PERICENTER": "94.7863",
    "MEAN_ANOMALY": "265.3469",
    "EPHEMERIS_TYPE": "0",
    "ELEMENT_SET_NO": "999",
    "REV_AT_EPOCH": "38125",
    "BSTAR": "0.000077273",
    "MEAN_MOTION_DOT": "0.00000143",
    "MEAN_MOTION_DDOT": "0",
    "FILE": "3931928",
    "TLE_LINE0": "0 SENTINEL 3A",
    "TLE_LINE1": "1 41335U 16011A   23164.50988737  .00000143  00000-0  77273-4 0  9996",
    "TLE_LINE2": "2 41335  98.6214 231.6149 0001329  94.7863 265.3469 14.26744370381258",
    "OBJECT_ID": "2016-011A",
    "OBJECT_NUMBER": "41335",
    "SEMIMAJOR_AXIS": "7180.771",
    "PERIOD": "100.929",
    "APOGEE": "803.590",
    "PERIGEE": "801.681",
    "DECAYED": "0"
  },
  {
    "COMMENT": "GENERATED VIA SPACETRACK.ORG API",
    "ORIGINATOR": "18 SPCS",
    "NORAD_CAT_ID": "25544",
    "OBJECT_NAME": "ISS (ZARYA)",
    "OBJECT_TYPE": "PAYLOAD",
    "CLASSIFICATION_TYPE": "U",
    "INTLDES": "98067A",
    "EPOCH": "2023-06-13 12:37:40",
    "EPOCH_MICROSECONDS": "809792",
    "MEAN_MOTION": "15.5072562",
    "ECCENTRICITY": "0.0005358",
    "INCLINATION": "51.6417",
    "RA_OF_ASC_NODE": "346.6735",
    "ARG_OF_PERICENTER": "78.3259",
    "MEAN_ANOMALY": "18.1341",
    "EPHEMERIS_TYPE": "0",
    "ELEMENT_SET_NO": "999",
    "REV_AT_EPOCH": "40122",
    "BSTAR": "0.00021989",
    "MEAN_MOTION_DOT": "0.0001244",
    "MEAN_MOTION_DDOT": "0",
    "FILE": "3931900",
    "TLE_LINE0": "0 ISS (ZARYA)",
    "TLE_LINE1": "1 25544U 98067A   23164.52616678  .00012440  00000-0  21989-3 0  9990",
    "TLE_LINE2": "2 25544  51.6417 346.6735 0005358  78.3259  18.1341 15.50725620401225",
    "OBJECT_ID": "1998-067A",
    "OBJECT_NUMBER": "25544",
    "SEMIMAJOR_AXIS": "6792.743",
    "PERIOD": "92.860",
    "APOGEE": "418.248",
    "PERIGEE": "410.969",
    "DECAYED": "0"
  },
  {
    "COMMENT": "GENERATED VIA SPACETRACK.ORG API",
    "ORIGINATOR": "18 SPCS",
    "NORAD_CAT_ID": "41335",
    "OBJECT_NAME": "SENTINEL 3A",
    "OBJECT_TYPE": "PAYLOAD",
    "CLASSIFICATION_TYPE": "U",
    "INTLDES": "16011A",
    "EPOCH": "2023-06-13 13:55:13",
    "EPOCH_MICROSECONDS": "458432",
    "MEAN_MOTION": "14.26744392",
    "ECCENTRICITY": "0.0001328",
    "INCLINATION": "98.6214",
    "RA_OF_ASC_NODE": "231.684",
    "ARG_OF_PERICENTER": "94.8069",
    "MEAN_ANOMALY": "265.3263",
    "EPHEMERIS_TYPE": "0",
    "ELEMENT_SET_NO": "999",
    "REV_AT_EPOCH": "38126",
    "BSTAR": "0.000075517",
    "MEAN_MOTION_DOT": "0.00000139",
    "MEAN_MOTION_DDOT": "0",
    "FILE": "3932134",
    "TLE_LINE0": "0 SENTINEL 3A",
    "TLE_LINE1": "1 41335U 16011A   23164.58001688  .00000139  00000-0  75517-4 0  9999",
    "TLE_LINE2": "2 41335  98.6214 231.6840 0001328  94.8069 265.3263 14.26744392381261",
    "OBJECT_ID": "2016-011A",
    "OBJECT_NUMBER": "41335",
    "SEMIMAJOR_AXIS": "7180.771",
    "PERIOD": "100.929",
    "APOGEE": "803.589",
    "PERIGEE": "801.682",
    "DECAYED": "0"
  }
]